ELEKTRO-L 3             
1 44903U 19095A   26136.82939427 -.00000087  00000+0  00000+0 0  9990
2 44903   0.1750  79.7656 0000969 322.2311 207.0760  1.00270969 23396
GONETS-M 14             
1 44905U 19096A   26136.89533374  .00000114  00000+0  75173-3 0  9998
2 44905  82.5200 104.0392 0012281 218.2132 141.8078 12.42869433289799
GONETS-M 15             
1 44906U 19096B   26136.84427240  .00000100  00000+0  64897-3 0  9994
2 44906  82.5219 104.5274 0013951 243.4672 116.4978 12.42870655289759
GONETS-M 16             
1 44907U 19096C   26136.87103316  .00000150  00000+0  10156-2 0  9996
2 44907  82.5165 103.4780 0009792 290.7301  69.2729 12.42891609289742
RS-44 & BREEZE-KM R/B   
1 44909U 19096E   26136.88889133  .00000036  00000+0  10413-3 0  9997
2 44909  82.5236   0.5064 0216777 217.3453 141.2413 12.79748289298343
JILIN-1 KUANFU 01       
1 45016U 20003A   26136.82180176  .00002643  00000+0  16397-3 0  9995
2 45016  97.5036 211.3921 0010956  56.6952 303.5326 15.10532931350595
XINGYUN-2 01            
1 45602U 20028A   26136.89983373  .00001319  00000+0  81288-4 0  9991
2 45602  97.4861 129.9253 0007970 322.2349  37.8321 15.11666029330112
XINGYUN-2 02            
1 45603U 20028B   26136.87297535  .00001358  00000+0  84095-4 0  9990
2 45603  97.5078 143.4175 0011870  28.1916 331.9954 15.11401240330105
HAIYANG-1D              
1 45721U 20036A   26136.78725456  .00000131  00000+0  62044-4 0  9996
2 45721  98.4544  79.1517 0001574 228.0537 132.0514 14.34162155310472
M2 PATHFINDER           
1 45727U 20037E   26136.65673418  .00001356  00000+0  10127-3 0  9993
2 45727  97.8163 327.5363 0009935 257.6999 102.3114 15.04530356320754
GAOFEN DUOMO (GFDM)     
1 45856U 20042A   26136.83792551  .00000159  00000+0  29645-4 0  9998
2 45856  97.7769 197.8615 0011121 166.7156 193.4350 14.76831734316380
ZIYUAN 3-03 (ZY 3-03)   
1 45939U 20051A   26136.87718050  .00003954  00000+0  17865-3 0  9992
2 45939  97.2852 205.6113 0007042  66.9465 293.2513 15.21496581322589
NEMO-HD                 
1 46277U 20061F   26136.83189249  .00009385  00000+0  20832-3 0  9999
2 46277  97.1939 199.1136 0002537 118.4454 241.7050 15.43922152317149
NAPA-1                  
1 46320U 20061BA  26136.84953564  .00055389  00000+0  58612-3 0  9990
2 46320  97.2489 210.0960 0001848 140.0808 220.0587 15.63990586316833
JILIN-1 GAOFEN 3E       
1 46457U 20065D   26136.82555722  .00046181  00000+0  56906-3 0  9991
2 46457  97.2287 188.7917 0009846 269.2199  90.7930 15.60023524314867
JILIN-1 GAOFEN 3F       
1 46458U 20065E   26136.86534183  .00041231  00000+0  55252-3 0  9998
2 46458  97.2241 186.3045 0011456 257.2892 102.7083 15.57796633314824
JILIN-1 GAOFEN 3G       
1 46459U 20065F   26136.82086867  .00065079  00000+0  63513-3 0  9991
2 46459  97.2316 192.5967 0012537 159.8103 200.3655 15.65903785315023
JILIN-1 GAOFEN 3H       
1 46460U 20065G   26136.86182613  .00054419  00000+0  58846-3 0  9992
2 46460  97.2257 189.1316 0008936 108.6577 251.5653 15.63393382314988
HAIYANG-2C              
1 46469U 20066A   26136.86213421  .00000112  00000+0  17536-3 0  9996
2 46469  65.9971 293.2760 0010043 239.9901 120.0171 13.83372543285161
HJ-2A                   
1 46478U 20067A   26136.85736475  .00000821  00000+0  12488-3 0  9993
2 46478  97.8833 215.9676 0003947  30.1409 330.0027 14.76569905303637
HJ-2B                   
1 46479U 20067B   26136.82585709  .00000197  00000+0  35424-4 0  9995
2 46479  97.8895 216.9353 0001316  74.8226 285.3130 14.76513183303633
GONETS-M 17             
1 46486U 20068A   26136.89572451  .00000038  00000+0  20322-3 0  9995
2 46486  82.5018   6.9719 0023335 102.3909 257.9784 12.42871795255275
GONETS-M 18             
1 46487U 20068B   26136.85937910  .00000067  00000+0  41236-3 0  9996
2 46487  82.4971   6.1244 0020671  98.8536 261.4885 12.42871203255257
GONETS-M 19             
1 46488U 20068C   26136.83526308  .00000064  00000+0  38962-3 0  9999
2 46488  82.4996   6.5840 0014259 112.4810 247.7781 12.42891114255350
DEKART                  
1 46493U 20068H   26136.82603256  .00010354  00000+0  29195-3 0  9993
2 46493  97.8746 143.8696 0010247  46.7389 313.4708 15.36577346310958
NORBI                   
1 46494U 20068J   26136.80063037  .00021198  00000+0  42022-3 0  9991
2 46494  97.8638 150.0337 0007072  30.3018 329.8638 15.47048310311355
SALSAT                  
1 46495U 20068K   26136.80914700  .00006032  00000+0  21480-3 0  9999
2 46495  97.8854 137.9767 0011317  59.3506 300.8846 15.29304779310563
