OBJECT_NAME,OBJECT_ID,EPOCH,MEAN_MOTION,ECCENTRICITY,INCLINATION,RA_OF_ASC_NODE,ARG_OF_PERICENTER,MEAN_ANOMALY,EPHEMERIS_TYPE,CLASSIFICATION_TYPE,NORAD_CAT_ID,ELEMENT_SET_NO,REV_AT_EPOCH,BSTAR,MEAN_MOTION_DOT,MEAN_MOTION_DDOT
ELEKTRO-L 3,2019-095A,2026-05-16T19:54:19.664928,1.00270969,.0000969,0.1750,79.7656,322.2311,207.0760,0,U,44903,999,2339,0,-.87E-6,0
GONETS-M 14,2019-096A,2026-05-16T21:29:16.835136,12.42869433,.0012281,82.5200,104.0392,218.2132,141.8078,0,U,44905,999,28979,.75173E-3,.114E-5,0
GONETS-M 15,2019-096B,2026-05-16T20:15:45.135360,12.42870655,.0013951,82.5219,104.5274,243.4672,116.4978,0,U,44906,999,28975,.64897E-3,.1E-5,0
GONETS-M 16,2019-096C,2026-05-16T20:54:17.265024,12.42891609,.0009792,82.5165,103.4780,290.7301,69.2729,0,U,44907,999,28974,.10156E-2,.15E-5,0
RS-44 & BREEZE-KM R/B,2019-096E,2026-05-16T21:20:00.210912,12.79748289,.0216777,82.5236,0.5064,217.3453,141.2413,0,U,44909,999,29834,.10413E-3,.36E-6,0
JILIN-1 KUANFU 01,2020-003A,2026-05-16T19:43:23.672064,15.10532931,.0010956,97.5036,211.3921,56.6952,303.5326,0,U,45016,999,35059,.16397E-3,.2643E-4,0
XINGYUN-2 01,2020-028A,2026-05-16T21:35:45.634272,15.11666029,.000797,97.4861,129.9253,322.2349,37.8321,0,U,45602,999,33011,.81288E-4,.1319E-4,0
XINGYUN-2 02,2020-028B,2026-05-16T20:57:05.070240,15.11401240,.001187,97.5078,143.4175,28.1916,331.9954,0,U,45603,999,33010,.84095E-4,.1358E-4,0
HAIYANG-1D,2020-036A,2026-05-16T18:53:38.793984,14.34162155,.0001574,98.4544,79.1517,228.0537,132.0514,0,U,45721,999,31047,.62044E-4,.131E-5,0
M2 PATHFINDER,2020-037E,2026-05-16T15:45:41.833152,15.04530356,.0009935,97.8163,327.5363,257.6999,102.3114,0,U,45727,999,32075,.10127E-3,.1356E-4,0
GAOFEN DUOMO (GFDM),2020-042A,2026-05-16T20:06:36.764064,14.76831734,.0011121,97.7769,197.8615,166.7156,193.4350,0,U,45856,999,31638,.29645E-4,.159E-5,0
ZIYUAN 3-03 (ZY 3-03),2020-051A,2026-05-16T21:03:08.395200,15.21496581,.0007042,97.2852,205.6113,66.9465,293.2513,0,U,45939,999,32258,.17865E-3,.3954E-4,0
NEMO-HD,2020-061F,2026-05-16T19:57:55.511136,15.43922152,.0002537,97.1939,199.1136,118.4454,241.7050,0,U,46277,999,31714,.20832E-3,.9385E-4,0
NAPA-1,2020-061BA,2026-05-16T20:23:19.879296,15.63990586,.0001848,97.2489,210.0960,140.0808,220.0587,0,U,46320,999,31683,.58612E-3,.55389E-3,0
JILIN-1 GAOFEN 3E,2020-065D,2026-05-16T19:48:48.143808,15.60023524,.0009846,97.2287,188.7917,269.2199,90.7930,0,U,46457,999,31486,.56906E-3,.46181E-3,0
JILIN-1 GAOFEN 3F,2020-065E,2026-05-16T20:46:05.534112,15.57796633,.0011456,97.2241,186.3045,257.2892,102.7083,0,U,46458,999,31482,.55252E-3,.41231E-3,0
JILIN-1 GAOFEN 3G,2020-065F,2026-05-16T19:42:03.053088,15.65903785,.0012537,97.2316,192.5967,159.8103,200.3655,0,U,46459,999,31502,.63513E-3,.65079E-3,0
JILIN-1 GAOFEN 3H,2020-065G,2026-05-16T20:41:01.777632,15.63393382,.0008936,97.2257,189.1316,108.6577,251.5653,0,U,46460,999,31498,.58846E-3,.54419E-3,0
HAIYANG-2C,2020-066A,2026-05-16T20:41:28.395744,13.83372543,.0010043,65.9971,293.2760,239.9901,120.0171,0,U,46469,999,28516,.17536E-3,.112E-5,0
HJ-2A,2020-067A,2026-05-16T20:34:36.314400,14.76569905,.0003947,97.8833,215.9676,30.1409,330.0027,0,U,46478,999,30363,.12488E-3,.821E-5,0
HJ-2B,2020-067B,2026-05-16T19:49:14.052576,14.76513183,.0001316,97.8895,216.9353,74.8226,285.3130,0,U,46479,999,30363,.35424E-4,.197E-5,0
GONETS-M 17,2020-068A,2026-05-16T21:29:50.597664,12.42871795,.0023335,82.5018,6.9719,102.3909,257.9784,0,U,46486,999,25527,.20322E-3,.38E-6,0
GONETS-M 18,2020-068B,2026-05-16T20:37:30.354240,12.42871203,.0020671,82.4971,6.1244,98.8536,261.4885,0,U,46487,999,25525,.41236E-3,.67E-6,0
GONETS-M 19,2020-068C,2026-05-16T20:02:46.730112,12.42891114,.0014259,82.4996,6.5840,112.4810,247.7781,0,U,46488,999,25535,.38962E-3,.64E-6,0
DEKART,2020-068H,2026-05-16T19:49:29.213184,15.36577346,.0010247,97.8746,143.8696,46.7389,313.4708,0,U,46493,999,31095,.29195E-3,.10354E-3,0
NORBI,2020-068J,2026-05-16T19:12:54.463968,15.47048310,.0007072,97.8638,150.0337,30.3018,329.8638,0,U,46494,999,31135,.42022E-3,.21198E-3,0
SALSAT,2020-068K,2026-05-16T19:25:10.300800,15.29304779,.0011317,97.8854,137.9767,59.3506,300.8846,0,U,46495,999,31056,.2148E-3,.6032E-4,0
